GLOBALSTAR M057 [-]     
1 25943U 99058A   24027.16581949 -.00000097  00000+0 -39942-4 0  9990
2 25943  52.0018 347.0658 0002970  43.9809 316.1277 12.24778705104875
GLOBALSTAR M059 [-]     
1 25944U 99058B   24026.65281597 -.00000080  00000+0  77478-4 0  9997
2 25944  52.0009 140.1886 0001210 105.6277   3.0885 11.99960388101866
GLOBALSTAR M056 [-]     
1 25945U 99058C   24026.77991729 -.00000109  00000+0 -25309-3 0  9994
2 25945  51.9957 154.8381 0000761 171.7151 335.9526 12.04774898101511
GLOBALSTAR M031 [-]     
1 25946U 99058D   24027.51893338 -.00000084  00000+0  64849-4 0  9999
2 25946  51.9973  75.4635 0001540 209.8709 297.9517 12.16002063103147
GLOBALSTAR M039 [-]     
1 25961U 99062A   24027.16526910 -.00000075  00000+0  15834-3 0  9990
2 25961  51.9869  12.9448 0002628 307.6085  52.4543 12.62279997116216
GLOBALSTAR M034 [-]     
1 25962U 99062B   24026.90729981 -.00000032  00000+0  77252-3 0  9990
2 25962  51.9848 249.9951 0014185 159.1975 303.3067 11.79423824 78510
GLOBALSTAR M029 [-]     
1 25963U 99062C   24027.47464669 -.00000068  00000+0  21932-3 0  9996
2 25963  51.9829  26.4359 0002525 200.3134 331.2960 11.99873052108342
GLOBALSTAR M061 [-]     
1 25964U 99062D   24026.44123664 -.00000023  00000+0  94005-3 0  9992
2 25964  51.9803  68.5119 0006298  94.4796  11.3646 11.76758231 61401
